{
  "type": "FeatureCollection",
  "features": [
    {
      "type": "Feature",
      "properties": {
        "norad_id": 35080,
        "name": "IRIDIUM 33 DEB",
        "group": "iridium-33-debris",
        "lat": 73.64839990956439,
        "lon": 58.987945074166625,
        "alt_km": 577.3791026459685,
        "timestamp": "2025-12-26T05:31:12.891943+00:00",
        "meta_object_name": "IRIDIUM 33 DEB",
        "meta_object_id": "1997-051PF",
        "meta_epoch": "2025-12-25T21:06:56.256192",
        "meta_mean_motion": 14.87512202,
        "meta_eccentricity": 0.00581422,
        "meta_inclination": 86.2077,
        "meta_ra_of_asc_node": 46.0896,
        "meta_arg_of_pericenter": 134.0447,
        "meta_mean_anomaly": 226.5589,
        "meta_ephemeris_type": 0,
        "meta_classification_type": "U",
        "meta_norad_cat_id": 35080,
        "meta_element_set_no": 999,
        "meta_rev_at_epoch": 69883,
        "meta_bstar": 0.0055239472,
        "meta_mean_motion_dot": 0.00051992,
        "meta_mean_motion_ddot": 0,
        "tle_line1": "1 35080U 97051PF  25359.87981778  .00051992  00000+0  55239-2 0  9998",
        "tle_line2": "2 35080  86.2077  46.0896 0058142 134.0447 226.5589 14.87512202698837"
      },
      "geometry": {
        "type": "Point",
        "coordinates": [
          58.987945074166625,
          73.64839990956439
        ]
      }
    },
    {
      "type": "Feature",
      "properties": {
        "norad_id": 35297,
        "name": "IRIDIUM 33 DEB",
        "group": "iridium-33-debris",
        "lat": -51.92544980997268,
        "lon": 52.371924111341684,
        "alt_km": 759.7556425659704,
        "timestamp": "2025-12-26T05:31:12.891953+00:00",
        "meta_object_name": "IRIDIUM 33 DEB",
        "meta_object_id": "1997-051PM",
        "meta_epoch": "2025-12-22T21:59:54.464640",
        "meta_mean_motion": 14.45198443,
        "meta_eccentricity": 0.0018277,
        "meta_inclination": 86.3852,
        "meta_ra_of_asc_node": 58.4147,
        "meta_arg_of_pericenter": 110.0569,
        "meta_mean_anomaly": 250.2602,
        "meta_ephemeris_type": 0,
        "meta_classification_type": "U",
        "meta_norad_cat_id": 35297,
        "meta_element_set_no": 999,
        "meta_rev_at_epoch": 70573,
        "meta_bstar": 0.00060275,
        "meta_mean_motion_dot": 2.134e-05,
        "meta_mean_motion_ddot": 0,
        "tle_line1": "1 35297U 97051PM  25356.91660260  .00002134  00000+0  60275-3 0  9991",
        "tle_line2": "2 35297  86.3852  58.4147 0018277 110.0569 250.2602 14.45198443705738"
      },
      "geometry": {
        "type": "Point",
        "coordinates": [
          52.371924111341684,
          -51.92544980997268
        ]
      }
    },
    {
      "type": "Feature",
      "properties": {
        "norad_id": 35299,
        "name": "IRIDIUM 33 DEB",
        "group": "iridium-33-debris",
        "lat": 32.38932724679591,
        "lon": 29.672707007122703,
        "alt_km": 716.2650856062883,
        "timestamp": "2025-12-26T05:31:12.891963+00:00",
        "meta_object_name": "IRIDIUM 33 DEB",
        "meta_object_id": "1997-051PP",
        "meta_epoch": "2025-12-25T13:24:36.107136",
        "meta_mean_motion": 14.40924492,
        "meta_eccentricity": 0.0058519,
        "meta_inclination": 86.2877,
        "meta_ra_of_asc_node": 27.6045,
        "meta_arg_of_pericenter": 61.5173,
        "meta_mean_anomaly": 91.5111,
        "meta_ephemeris_type": 0,
        "meta_classification_type": "U",
        "meta_norad_cat_id": 35299,
        "meta_element_set_no": 999,
        "meta_rev_at_epoch": 86515,
        "meta_bstar": 0.00086031,
        "meta_mean_motion_dot": 2.836e-05,
        "meta_mean_motion_ddot": 0,
        "tle_line1": "1 35299U 97051PP  25359.55875124  .00002836  00000+0  86031-3 0  9990",
        "tle_line2": "2 35299  86.2877  27.6045 0058519  61.5173  91.5111 14.40924492865155"
      },
      "geometry": {
        "type": "Point",
        "coordinates": [
          29.672707007122703,
          32.38932724679591
        ]
      }
    },
    {
      "type": "Feature",
      "properties": {
        "norad_id": 35480,
        "name": "IRIDIUM 33 DEB",
        "group": "iridium-33-debris",
        "lat": -24.546748728689494,
        "lon": -159.26936222375755,
        "alt_km": 740.5265753424865,
        "timestamp": "2025-12-26T05:31:12.891972+00:00",
        "meta_object_name": "IRIDIUM 33 DEB",
        "meta_object_id": "1997-051QA",
        "meta_epoch": "2025-12-24T07:51:25.805664",
        "meta_mean_motion": 14.49809175,
        "meta_eccentricity": 0.00158453,
        "meta_inclination": 86.3558,
        "meta_ra_of_asc_node": 19.8875,
        "meta_arg_of_pericenter": 70.7073,
        "meta_mean_anomaly": 289.5844,
        "meta_ephemeris_type": 0,
        "meta_classification_type": "U",
        "meta_norad_cat_id": 35480,
        "meta_element_set_no": 999,
        "meta_rev_at_epoch": 87199,
        "meta_bstar": 0.00057778093,
        "meta_mean_motion_dot": 2.251e-05,
        "meta_mean_motion_ddot": 0,
        "tle_line1": "1 35480U 97051QA  25358.32738201  .00002251  00000+0  57778-3 0  9997",
        "tle_line2": "2 35480  86.3558  19.8875 0015845  70.7073 289.5844 14.49809175871994"
      },
      "geometry": {
        "type": "Point",
        "coordinates": [
          -159.26936222375755,
          -24.546748728689494
        ]
      }
    },
    {
      "type": "Feature",
      "properties": {
        "norad_id": 35484,
        "name": "IRIDIUM 33 DEB",
        "group": "iridium-33-debris",
        "lat": -58.03843410017551,
        "lon": 172.28547383366072,
        "alt_km": 591.451424430431,
        "timestamp": "2025-12-26T05:31:12.891982+00:00",
        "meta_object_name": "IRIDIUM 33 DEB",
        "meta_object_id": "1997-051QE",
        "meta_epoch": "2025-12-23T05:59:10.354560",
        "meta_mean_motion": 14.99264182,
        "meta_eccentricity": 0.00245796,
        "meta_inclination": 86.3609,
        "meta_ra_of_asc_node": 347.8264,
        "meta_arg_of_pericenter": 91.5392,
        "meta_mean_anomaly": 268.8655,
        "meta_ephemeris_type": 0,
        "meta_classification_type": "U",
        "meta_norad_cat_id": 35484,
        "meta_element_set_no": 999,
        "meta_rev_at_epoch": 62173,
        "meta_bstar": 0.0029536278,
        "meta_mean_motion_dot": 0.00036413,
        "meta_mean_motion_ddot": 0,
        "tle_line1": "1 35484U 97051QE  25357.24942540  .00036413  00000+0  29536-2 0  9991",
        "tle_line2": "2 35484  86.3609 347.8264 0024579  91.5392 268.8655 14.99264182621733"
      },
      "geometry": {
        "type": "Point",
        "coordinates": [
          172.28547383366072,
          -58.03843410017551
        ]
      }
    },
    {
      "type": "Feature",
      "properties": {
        "norad_id": 35488,
        "name": "IRIDIUM 33 DEB",
        "group": "iridium-33-debris",
        "lat": -60.14220287110804,
        "lon": -71.77095942485546,
        "alt_km": 615.4719559525665,
        "timestamp": "2025-12-26T05:31:12.891992+00:00",
        "meta_object_name": "IRIDIUM 33 DEB",
        "meta_object_id": "1997-051QJ",
        "meta_epoch": "2025-12-24T19:47:30.471936",
        "meta_mean_motion": 14.83358408,
        "meta_eccentricity": 0.00280046,
        "meta_inclination": 86.3249,
        "meta_ra_of_asc_node": 295.3058,
        "meta_arg_of_pericenter": 2.7873,
        "meta_mean_anomaly": 357.3501,
        "meta_ephemeris_type": 0,
        "meta_classification_type": "U",
        "meta_norad_cat_id": 35488,
        "meta_element_set_no": 999,
        "meta_rev_at_epoch": 88445,
        "meta_bstar": 0.0017384526,
        "meta_mean_motion_dot": 0.00014384,
        "meta_mean_motion_ddot": 0,
        "tle_line1": "1 35488U 97051QJ  25358.82465824  .00014384  00000+0  17385-2 0  9997",
        "tle_line2": "2 35488  86.3249 295.3058 0028004   2.7873 357.3501 14.83358408884452"
      },
      "geometry": {
        "type": "Point",
        "coordinates": [
          -71.77095942485546,
          -60.14220287110804
        ]
      }
    },
    {
      "type": "Feature",
      "properties": {
        "norad_id": 35616,
        "name": "IRIDIUM 33 DEB",
        "group": "iridium-33-debris",
        "lat": 38.13089027662641,
        "lon": -17.525211504984842,
        "alt_km": 618.5370204818091,
        "timestamp": "2025-12-26T05:31:12.892002+00:00",
        "meta_object_name": "IRIDIUM 33 DEB",
        "meta_object_id": "1997-051QN",
        "meta_epoch": "2025-12-21T16:46:45.287328",
        "meta_mean_motion": 14.82015021,
        "meta_eccentricity": 0.00114093,
        "meta_inclination": 86.3545,
        "meta_ra_of_asc_node": 341.6744,
        "meta_arg_of_pericenter": 134.0095,
        "meta_mean_anomaly": 226.2069,
        "meta_ephemeris_type": 0,
        "meta_classification_type": "U",
        "meta_norad_cat_id": 35616,
        "meta_element_set_no": 999,
        "meta_rev_at_epoch": 87707,
        "meta_bstar": 0.0013754653,
        "meta_mean_motion_dot": 0.00010957,
        "meta_mean_motion_ddot": 0,
        "tle_line1": "1 35616U 97051QN  25355.69913527  .00010957  00000+0  13755-2 0  9999",
        "tle_line2": "2 35616  86.3545 341.6744 0011409 134.0095 226.2069 14.82015021877070"
      },
      "geometry": {
        "type": "Point",
        "coordinates": [
          -17.525211504984842,
          38.13089027662641
        ]
      }
    }
  ]
}